CAS-2T & KS-1Q          
1 41847U 16066G   20263.13558841  .00000022  00000-0  14637-4 0  9990
2 41847  98.6447 314.5470 0364727 309.8674  47.0954 14.38091014202884
NAYIF-1 (EO-88)         
1 42017U 17008BX  20263.14980078  .00001185  00000-0  47799-4 0  9995
2 42017  97.3520 329.3181 0006053   7.5251 352.6078 15.26736923199849
MAX VALIER SAT          
1 42778U 17036P   20263.44675948  .00000604  00000-0  28759-4 0  9990
2 42778  97.2960 314.4430 0013538  56.8912 303.3623 15.22766766180033
RADFXSAT (FOX-1B)       
1 43017U 17073E   20263.49872556  .00000344  00000-0  31593-4 0  9998
2 43017  97.7157 172.0852 0258120 103.8168 259.1908 14.79016096153065
FOX-1D (AO-92)          
1 43137U 18004AC  20263.16702961  .00000710  00000-0  31960-4 0  9997
2 43137  97.4387 333.6662 0010816  87.5503 272.6972 15.24283884149319
DIWATA-2B               
1 43678U 18084H   20263.58956629  .00000123  00000-0  17950-4 0  9994
2 43678  97.8936  22.0441 0008807 219.7804 140.2696 14.91652808103050
ES'HAIL 2               
1 43700U 18090A   20263.09327483  .00000129  00000-0  00000-0 0  9993
2 43700   0.0163 149.5857 0001872  50.6506 217.6030  1.00272991  6641
FOX-1CLIFF (AO-95)      
1 43770U 18099N   20263.47890031  .00000626  00000-0  62364-4 0  9992
2 43770  97.6987 333.1880 0013258 239.6642 120.3268 14.95041670 97966
ITASAT 1                
1 43786U 18099AE  20263.18708293 -.00000156  00000-0 -88718-5 0  9997
2 43786  97.7002 333.3884 0014067 234.4869 125.5041 14.95371860 97942
JY1SAT (JO-97)          
1 43803U 18099AX  20263.19023315  .00000006  00000-0  57613-5 0  9995
2 43803  97.6962 333.1888 0014043 234.5375 125.4536 14.95558288 97944
PSAT2 (NO-104)          
1 44354U 19036R   20262.93800318  .00005936  00000-0  81741-4 0  9991
2 44354  28.5323 125.9320 0357375 230.6178 126.2240 15.05213616 67903
BRICSAT2 (NO-103)       
1 44355U 19036S   20262.96423435  .00010091  00000-0  13309-3 0  9998
2 44355  28.5313 111.4606 0330170 254.1791 102.2169 15.12149959 68053
JAISAT-1                
1 44419U 19038F   20263.47753424  .00000537  00000-0  34103-4 0  9992
2 44419  97.5484 224.0267 0021869 162.4420 197.7572 15.12915116 66810
DUCHIFAT-3              
1 44854U 19089C   20263.41018464  .00000335  00000-0  33487-4 0  9993
2 44854  36.9655 263.0644 0007467  98.5752 261.5824 14.99127648 42405
RS-44 & BREEZE-KM R/B   
1 44909U 19096E   20263.49044704  .00000021  00000-0  39978-4 0  9999
2 44909  82.5180 292.8337 0217473   6.9661 353.4378 12.79708194 34219
ORBITAL FACTORY 2 (OF-2)
1 45113U 19071C   20263.45636912  .00001089  00000-0  44443-4 0  9992
2 45113  51.6434 269.3473 0013334  37.8751 322.3166 15.33658827 35557
HUSKYSAT-1              
1 45119U 19071J   20263.48729972  .00001311  00000-0  50851-4 0  9998
2 45119  51.6428 268.8045 0012601  34.8248 325.3556 15.33852710 35552
